[{"OBJECT_NAME":"STARLINK-30905","OBJECT_ID":"2023-177F","EPOCH":"2026-03-09T02:36:31.875264","MEAN_MOTION":15.2674188,"ECCENTRICITY":0.00015998,"INCLINATION":43.0027,"RA_OF_ASC_NODE":353.4154,"ARG_OF_PERICENTER":257.5551,"MEAN_ANOMALY":102.5121,"EPHEMERIS_TYPE":0,"CLASSIFICATION_TYPE":"U","NORAD_CAT_ID":58356,"ELEMENT_SET_NO":999,"REV_AT_EPOCH":12808,"BSTAR":0.00012664275,"MEAN_MOTION_DOT":3.139e-5,"MEAN_MOTION_DDOT":0},{"OBJECT_NAME":"REAL","OBJECT_ID":"2025-154G","EPOCH":"2026-03-09T17:20:09.670560","MEAN_MOTION":15.28408058,"ECCENTRICITY":0.00018528,"INCLINATION":97.4133,"RA_OF_ASC_NODE":137.2581,"ARG_OF_PERICENTER":118.5876,"MEAN_ANOMALY":241.555,"EPHEMERIS_TYPE":0,"CLASSIFICATION_TYPE":"U","NORAD_CAT_ID":64875,"ELEMENT_SET_NO":999,"REV_AT_EPOCH":3483,"BSTAR":0.0008290401,"MEAN_MOTION_DOT":0.00022901,"MEAN_MOTION_DDOT":0}]
