STARLINK-30905          
1 58356U 23177F   26068.10870226  .00003139  00000+0  12664-3 0  9992
2 58356  43.0027 353.4154 0001599 257.5551 102.5121 15.26741880128087
REAL                    
1 64875U 25154G   26068.72233414  .00022901  00000+0  82904-3 0  9994
2 64875  97.4133 137.2581 0001853 118.5876 241.5550 15.28408058 34830
